NORAD_CAT_ID,OBJECT_NAME,OBJECT_TYPE,EPOCH,MEAN_MOTION,ECCENTRICITY,INCLINATION,RA_OF_ASC_NODE,ARG_OF_PERICENTER,MEAN_ANOMALY,BSTAR,MEAN_MOTION_DOT,MEAN_MOTION_DDOT,TLE_LINE0,TLE_LINE1,TLE_LINE2,SEMIMAJOR_AXIS,PERIOD,APOGEE,PERIGEE,DECAYED
56805.0,STARLINK-6064,PAYLOAD,2024-05-19 03:46:27,14.98318468,0.0003373,70.0004,187.3027,267.2169,92.8604,-7.6615e-05,-1.007e-05,0.0,0 STARLINK-6064,1 56805U 23078AQ  24140.15726197 -.00001007  00000-0 -76615-4 0  9992,2 56805  70.0004 187.3027 0003373 267.2169  92.8604 14.98318468 54644,6950.229,96.108,574.438,569.749,0.0
56805.0,STARLINK-6064,PAYLOAD,2024-05-19 13:23:16,14.98319148,0.0003371,69.9996,186.2902,269.2305,90.8468,-9.0782e-05,-1.176e-05,0.0,0 STARLINK-6064,1 56805U 23078AQ  24140.55782516 -.00001176  00000-0 -90782-4 0  9991,2 56805  69.9996 186.2902 0003371 269.2305  90.8468 14.98319148 54443,6950.226,96.108,574.434,569.749,0.0
56805.0,STARLINK-6064,PAYLOAD,2024-05-20 03:48:27,14.98329048,0.0003756,69.9981,184.7749,272.451,87.6219,5.5515e-05,5.69e-06,0.0,0 STARLINK-6064,1 56805U 23078AQ  24141.15865535  .00000569  00000-0  55515-4 0  9999,2 56805  69.9981 184.7749 0003756 272.4510  87.6219 14.98329048 54796,6950.196,96.107,574.671,569.45,0.0
56805.0,STARLINK-6064,PAYLOAD,2024-05-20 11:49:07,14.98336307,0.0003379,69.9993,183.9346,269.1188,90.9584,8.1961e-05,8.85e-06,0.0,0 STARLINK-6064,1 56805U 23078AQ  24141.49244975  .00000885  00000-0  81961-4 0  9990,2 56805  69.9993 183.9346 0003379 269.1188  90.9584 14.98336307 54842,6950.173,96.107,574.387,569.69,0.0
56805.0,STARLINK-6064,PAYLOAD,2024-05-20 13:25:15,14.98336851,0.0003379,69.9993,183.7664,269.0938,90.9834,8.7097e-05,9.47e-06,0.0,0 STARLINK-6064,1 56805U 23078AQ  24141.55920904  .00000947  00000-0  87097-4 0  9995,2 56805  69.9993 183.7664 0003379 269.0938  90.9834 14.98336851 54599,6950.172,96.107,574.385,569.688,0.0
56805.0,STARLINK-6064,PAYLOAD,2024-05-21 03:50:29,14.98340283,0.0002875,69.9998,182.2535,255.0369,105.0471,-0.00019495,-2.419e-05,0.0,0 STARLINK-6064,1 56805U 23078AQ  24142.16005804 -.00002419  00000-0 -19495-3 0  9990,2 56805  69.9998 182.2535 0002875 255.0369 105.0471 14.98340283 54946,6950.161,96.106,574.024,570.028,0.0
56805.0,STARLINK-6064,PAYLOAD,2024-05-21 11:51:09,14.98319466,0.0003119,69.9998,181.4103,264.1457,95.9347,5.7293e-05,5.9e-06,0.0,0 STARLINK-6064,1 56805U 23078AQ  24142.49386243  .00000590  00000-0  57293-4 0  9990,2 56805  69.9998 181.4103 0003119 264.1457  95.9347 14.98319466 54992,6950.225,96.108,574.258,569.923,0.0
56805.0,STARLINK-6064,PAYLOAD,2024-05-22 03:52:29,14.98334021,0.0003323,69.9995,179.7271,267.8125,92.2654,-5.8992e-05,-7.97e-06,0.0,0 STARLINK-6064,1 56805U 23078AQ  24143.16145699 -.00000797  00000-0 -58992-4 0  9991,2 56805  69.9995 179.7271 0003323 267.8125  92.2654 14.98334021 55091,6950.18,96.107,574.355,569.736,0.0
56805.0,STARLINK-6064,PAYLOAD,2024-05-22 11:53:10,14.9833211,0.0003356,69.9994,178.8854,267.7995,92.278,-7.3596e-05,-9.71e-06,0.0,0 STARLINK-6064,1 56805U 23078AQ  24143.49525785 -.00000971  00000-0 -73596-4 0  9996,2 56805  69.9994 178.8854 0003356 267.7995  92.2780 14.98332110 54880,6950.186,96.107,574.384,569.719,0.0
56805.0,STARLINK-6064,PAYLOAD,2024-05-23 05:30:38,14.98328544,0.00035,69.9989,177.0332,268.5227,91.5531,3.7116e-05,3.5e-06,0.0,0 STARLINK-6064,1 56805U 23078AQ  24144.22961599  .00000350  00000-0  37116-4 0  9992,2 56805  69.9989 177.0332 0003500 268.5227  91.5531 14.98328544 55258,6950.197,96.107,574.495,569.63,0.0
56805.0,STARLINK-6064,PAYLOAD,2024-05-23 11:55:11,14.98329497,0.0003485,69.9989,176.36,268.3704,91.7056,4.484e-05,4.42e-06,0.0,0 STARLINK-6064,1 56805U 23078AQ  24144.49665523  .00000442  00000-0  44840-4 0  9993,2 56805  69.9989 176.3600 0003485 268.3704  91.7056 14.98329497 55036,6950.194,96.107,574.482,569.637,0.0
56805.0,STARLINK-6064,PAYLOAD,2024-05-24 11:57:11,14.98333753,0.0003549,69.9987,173.8348,269.7968,90.2784,4.1853e-05,4.06e-06,0.0,0 STARLINK-6064,1 56805U 23078AQ  24145.49805082  .00000406  00000-0  41853-4 0  9991,2 56805  69.9987 173.8348 0003549 269.7968  90.2784 14.98333753 55440,6950.181,96.107,574.513,569.58,0.0
56805.0,STARLINK-6064,PAYLOAD,2024-05-25 03:58:32,14.98328568,0.0003457,69.9989,172.1511,268.1287,91.9476,-3.1513e-05,-4.69e-06,0.0,0 STARLINK-6064,1 56805U 23078AQ  24146.16565528 -.00000469  00000-0 -31513-4 0  9997,2 56805  69.9989 172.1511 0003457 268.1287  91.9476 14.98328568 55546,6950.197,96.107,574.465,569.66,0.0
56805.0,STARLINK-6064,PAYLOAD,2024-05-25 11:59:13,14.98327744,0.0003467,69.9988,171.3094,267.8753,92.2009,-3.8882e-05,-5.57e-06,0.0,0 STARLINK-6064,1 56805U 23078AQ  24146.49945612 -.00000557  00000-0 -38882-4 0  9993,2 56805  69.9988 171.3094 0003467 267.8753  92.2009 14.98327744 55335,6950.2,96.107,574.475,569.655,0.0
56805.0,STARLINK-6064,PAYLOAD,2024-05-26 04:00:33,14.98333886,0.0003517,69.9989,169.6272,264.986,95.0898,8.0011e-06,2e-08,0.0,0 STARLINK-6064,1 56805U 23078AQ  24147.16705000  .00000002  00000-0  80011-5 0  9998,2 56805  69.9989 169.6272 0003517 264.9860  95.0898 14.98333886 55697,6950.181,96.107,574.49,569.601,0.0
56805.0,STARLINK-6064,PAYLOAD,2024-05-26 12:01:13,14.98331069,0.0003308,69.9994,168.7854,261.1134,98.965,4.1978e-06,-4.3e-07,0.0,0 STARLINK-6064,1 56805U 23078AQ  24147.50085129 -.00000043  00000-0  41978-5 0  9994,2 56805  69.9994 168.7854 0003308 261.1134  98.9650 14.98331069 55486,6950.19,96.107,574.354,569.755,0.0
56805.0,STARLINK-6064,PAYLOAD,2024-05-26 18:25:45,14.98331809,0.0003098,69.9999,168.1124,264.4489,95.6317,-6.5153e-05,-8.7e-06,0.0,0 STARLINK-6064,1 56805U 23078AQ  24147.76789302 -.00000870  00000-0 -65153-4 0  9995,2 56805  69.9999 168.1124 0003098 264.4489  95.6317 14.98331809 55521,6950.187,96.107,574.205,569.899,0.0
56805.0,STARLINK-6064,PAYLOAD,2024-05-27 04:02:34,14.98326052,0.0003566,69.9992,167.1022,265.8846,94.1906,3.7772e-05,3.58e-06,0.0,0 STARLINK-6064,1 56805U 23078AQ  24148.16845244  .00000358  00000-0  37772-4 0  9993,2 56805  69.9992 167.1022 0003566 265.8846  94.1906 14.98326052 55849,6950.205,96.107,574.549,569.592,0.0
56805.0,STARLINK-6064,PAYLOAD,2024-05-27 10:27:06,14.98324586,0.0003012,70.0,166.4291,258.429,101.6531,2.4538e-05,2e-06,0.0,0 STARLINK-6064,1 56805U 23078AQ  24148.43549497  .00000200  00000-0  24538-4 0  9996,2 56805  70.0000 166.4291 0003012 258.4290 101.6531 14.98324586 55623,6950.21,96.107,574.168,569.981,0.0
56805.0,STARLINK-6064,PAYLOAD,2024-05-27 18:27:47,14.98307462,0.0003244,69.9992,165.5875,263.4256,96.6533,0.00032041,3.73e-05,0.0,0 STARLINK-6064,1 56805U 23078AQ  24148.76929977  .00003730  00000-0  32041-3 0  9995,2 56805  69.9992 165.5875 0003244 263.4256  96.6533 14.98307462 55936,6950.263,96.108,574.382,569.873,0.0
56805.0,STARLINK-6064,PAYLOAD,2024-05-28 04:04:35,14.98320845,0.0003515,69.9988,164.5763,265.2022,94.8736,0.00013682,1.539e-05,0.0,0 STARLINK-6064,1 56805U 23078AQ  24149.16985235  .00001539  00000-0  13682-3 0  9994,2 56805  69.9988 164.5763 0003515 265.2022  94.8736 14.98320845 55999,6950.221,96.108,574.529,569.643,0.0
56805.0,STARLINK-6064,PAYLOAD,2024-05-28 10:29:07,14.98330767,0.0003565,69.9987,163.9034,266.3242,93.751,-1.8936e-05,-3.19e-06,0.0,0 STARLINK-6064,1 56805U 23078AQ  24149.43689105 -.00000319  00000-0 -18936-4 0  9996,2 56805  69.9987 163.9034 0003565 266.3242  93.7510 14.98330767 55771,6950.191,96.107,574.533,569.578,0.0
56805.0,STARLINK-6064,PAYLOAD,2024-05-29 04:06:36,14.98328804,0.0003646,69.9985,162.0519,267.2163,92.8579,7.9338e-06,2e-08,0.0,0 STARLINK-6064,1 56805U 23078AQ  24150.17125109  .00000002  00000-0  79338-5 0  9999,2 56805  69.9985 162.0519 0003646 267.2163  92.8579 14.98328804 56145,6950.197,96.107,574.596,569.528,0.0
56805.0,STARLINK-6064,PAYLOAD,2024-05-29 10:31:08,14.98328749,0.0003646,69.9985,161.3784,267.163,92.9112,7.512e-06,-3e-08,0.0,0 STARLINK-6064,1 56805U 23078AQ  24150.43829125 -.00000003  00000-0  75120-5 0  9994,2 56805  69.9985 161.3784 0003646 267.1630  92.9112 14.98328749 55926,6950.197,96.107,574.596,569.528,0.0
56805.0,STARLINK-6064,PAYLOAD,2024-05-30 04:08:36,14.98331358,0.0003686,69.9982,159.5265,267.4968,92.5769,9.233e-06,1.7e-07,0.0,0 STARLINK-6064,1 56805U 23078AQ  24151.17264919  .00000017  00000-0  92330-5 0  9996,2 56805  69.9982 159.5265 0003686 267.4968  92.5769 14.98331358 56292,6950.189,96.107,574.616,569.492,0.0
56805.0,STARLINK-6064,PAYLOAD,2024-05-30 10:33:09,14.98331865,0.0003664,69.9983,158.8533,267.2022,92.8718,1.6573e-05,1.05e-06,0.0,0 STARLINK-6064,1 56805U 23078AQ  24151.43968835  .00000105  00000-0  16573-4 0  9995,2 56805  69.9983 158.8533 0003664 267.2022  92.8718 14.98331865 56074,6950.187,96.107,574.599,569.506,0.0
56805.0,STARLINK-6064,PAYLOAD,2024-05-30 23:22:13,14.98330564,0.000363,69.9984,157.5067,266.8309,93.2434,1.6487e-05,1.04e-06,0.0,0 STARLINK-6064,1 56805U 23078AQ  24151.97376855  .00000104  00000-0  16487-4 0  9992,2 56805  69.9984 157.5067 0003630 266.8309  93.2434 14.98330564 56153,6950.191,96.107,574.579,569.533,0.0
56805.0,STARLINK-6064,PAYLOAD,2024-05-31 04:10:37,14.98330936,0.0003616,69.9984,157.0016,267.1071,92.9674,2.1891e-05,1.68e-06,0.0,0 STARLINK-6064,1 56805U 23078AQ  24152.17404802  .00000168  00000-0  21891-4 0  9994,2 56805  69.9984 157.0016 0003616 267.1071  92.9674 14.98330936 56443,6950.19,96.107,574.568,569.542,0.0
56805.0,STARLINK-6064,PAYLOAD,2024-05-31 10:35:09,14.9833118,0.0003612,69.9984,156.3282,267.3102,92.7643,2.3117e-05,1.83e-06,0.0,0 STARLINK-6064,1 56805U 23078AQ  24152.44108760  .00000183  00000-0  23117-4 0  9998,2 56805  69.9984 156.3282 0003612 267.3102  92.7643 14.98331180 56225,6950.189,96.107,574.565,569.544,0.0
56805.0,STARLINK-6064,PAYLOAD,2024-05-31 16:59:42,14.98330792,0.0003648,69.9984,155.6548,268.3361,91.738,1.0797e-05,3.6e-07,0.0,0 STARLINK-6064,1 56805U 23078AQ  24152.70812782  .00000036  00000-0  10797-4 0  9990,2 56805  69.9984 155.6548 0003648 268.3361  91.7380 14.98330792 56268,6950.19,96.107,574.591,569.52,0.0
